[{"OBJECT_NAME":"STARLINK-6139","OBJECT_ID":"2023-090J","EPOCH":"2026-03-09T20:00:51.659136","MEAN_MOTION":15.0253533,"ECCENTRICITY":0.00014053,"INCLINATION":43.004,"RA_OF_ASC_NODE":273.9931,"ARG_OF_PERICENTER":267.3015,"MEAN_ANOMALY":92.7667,"EPHEMERIS_TYPE":0,"CLASSIFICATION_TYPE":"U","NORAD_CAT_ID":57109,"ELEMENT_SET_NO":999,"REV_AT_EPOCH":15043,"BSTAR":-9.477038e-6,"MEAN_MOTION_DOT":-3.32e-6,"MEAN_MOTION_DDOT":0},{"OBJECT_NAME":"HELIOS 1A","OBJECT_ID":"1995-033A","EPOCH":"2026-03-09T15:20:38.403168","MEAN_MOTION":15.05208405,"ECCENTRICITY":0.0012543,"INCLINATION":98.2085,"RA_OF_ASC_NODE":312.7113,"ARG_OF_PERICENTER":11.1866,"MEAN_ANOMALY":348.9636,"EPHEMERIS_TYPE":0,"CLASSIFICATION_TYPE":"U","NORAD_CAT_ID":23605,"ELEMENT_SET_NO":999,"REV_AT_EPOCH":65318,"BSTAR":0.00025897,"MEAN_MOTION_DOT":3.631e-5,"MEAN_MOTION_DDOT":0}]
